{
  "type": "FeatureCollection",
  "features": [
    {
      "type": "Feature",
      "properties": {
        "name": "Kabupaten Tanah Laut",
        "name_en": "Tanah Laut Regency",
        "provinsi": "Kalimantan Selatan",
        "ibukota": "Pelaihari",
        "kode_bps": "6301",
        "luas_km2": 3841.37
      },
      "geometry": {
        "type": "Polygon",
        "coordinates": [
          [
            [
              114.4282,
              -3.4523
            ],
            [
              114.485,
              -3.4302
            ],
            [
              114.552,
              -3.418
            ],
            [
              114.631,
              -3.405
            ],
            [
              114.718,
              -3.398
            ],
            [
              114.802,
              -3.405
            ],
            [
              114.895,
              -3.412
            ],
            [
              114.978,
              -3.425
            ],
            [
              115.065,
              -3.442
            ],
            [
              115.155,
              -3.465
            ],
            [
              115.242,
              -3.498
            ],
            [
              115.325,
              -3.538
            ],
            [
              115.405,
              -3.587
            ],
            [
              115.478,
              -3.642
            ],
            [
              115.538,
              -3.703
            ],
            [
              115.582,
              -3.77
            ],
            [
              115.605,
              -3.845
            ],
            [
              115.602,
              -3.925
            ],
            [
              115.578,
              -4.002
            ],
            [
              115.538,
              -4.078
            ],
            [
              115.485,
              -4.148
            ],
            [
              115.418,
              -4.21
            ],
            [
              115.338,
              -4.262
            ],
            [
              115.245,
              -4.298
            ],
            [
              115.145,
              -4.315
            ],
            [
              115.038,
              -4.312
            ],
            [
              114.928,
              -4.292
            ],
            [
              114.818,
              -4.252
            ],
            [
              114.712,
              -4.202
            ],
            [
              114.615,
              -4.145
            ],
            [
              114.528,
              -4.082
            ],
            [
              114.458,
              -4.008
            ],
            [
              114.408,
              -3.925
            ],
            [
              114.378,
              -3.838
            ],
            [
              114.365,
              -3.748
            ],
            [
              114.368,
              -3.658
            ],
            [
              114.388,
              -3.57
            ],
            [
              114.408,
              -3.512
            ],
            [
              114.4282,
              -3.4523
            ]
          ]
        ]
      }
    }
  ]
}